AUTCUBE 2               
1 43681U 18084K   26068.48152820  .00005282  00000+0  33524-3 0  9991
2 43681  98.0799 269.3640 0009685  28.2406 331.9345 15.09319394401889
STARLINK-4075           
1 52670U 22053Q   26068.53668016 -.00000474  00000+0 -11683-4 0  9998
2 52670  53.2177 154.8782 0001217  89.3389 270.7743 15.08831881211022
